{
  "type": "FeatureCollection",
  "features": [
    {
      "type": "Feature",
      "properties": {
        "name": "Filchner"
      },
      "geometry": {
        "type": "LineString",
        "coordinates": [
          [
            -68.73046875,
            -84.07981919384383
          ],
          [
            -53.173828125,
            -81.59569894043715
          ],
          [
            -40.42968749999999,
            -80.297927149974
          ],
          [
            -39.287109375,
            -72.6857649417295
          ]
        ]
      }
    },
    {
      "type": "Feature",
      "properties": {
        "name": "Ronne"
      },
      "geometry": {
        "type": "LineString",
        "coordinates": [
          [
            -68.73046875,
            -84.07074698172724
          ],
          [
            -59.32617187499999,
            -81.60853505402471
          ],
          [
            -53.876953125,
            -78.61266542765814
          ],
          [
            -40.078125,
            -72.6857649417295
          ]
        ]
      }
    }
  ]
}
